NORAD_CAT_ID,OBJECT_NAME,OBJECT_TYPE,EPOCH,MEAN_MOTION,ECCENTRICITY,INCLINATION,RA_OF_ASC_NODE,ARG_OF_PERICENTER,MEAN_ANOMALY,BSTAR,MEAN_MOTION_DOT,MEAN_MOTION_DDOT,TLE_LINE0,TLE_LINE1,TLE_LINE2,SEMIMAJOR_AXIS,PERIOD,APOGEE,PERIGEE,DECAYED
49408.0,STARLINK-3151,PAYLOAD,2021-12-08 06:00:02,15.73245196,0.0002264,53.2187,10.7335,22.9974,287.1304,-0.00013012,-0.0001888,0.0,0 STARLINK-3151,1 49408U 21104A   21342.25002315 -.00018880  00000-0 -13012-3 0  9990,2 49408  53.2187  10.7335 0002264  22.9974 287.1304 15.73245196  5181,6727.766,91.531,351.154,348.108,0.0
49408.0,STARLINK-3151,PAYLOAD,2021-12-08 14:00:01,15.73253235,0.0002443,53.2183,9.0851,18.4399,20.5928,-0.00038869,-0.00054949,0.0,0 STARLINK-3151,1 49408U 21104A   21342.58334491 -.00054949  00000-0 -38869-3 0  9992,2 49408  53.2183   9.0851 0002443  18.4399  20.5928 15.73253235  3712,6727.743,91.53,351.25199999999984,347.965,0.0
49408.0,STARLINK-3151,PAYLOAD,2021-12-08 22:00:00,15.73166488,0.0002136,53.2186,7.4335,17.9347,110.0835,0.00042233,0.00058986,0.0,0 STARLINK-3151,1 49408U 21104A   21342.91667824  .00058986  00000-0  42233-3 0  9991,2 49408  53.2186   7.4335 0002136  17.9347 110.0835 15.73166488  3715,6727.991,91.535,351.293,348.4190000000001,0.0
49408.0,STARLINK-3151,PAYLOAD,2021-12-09 11:10:50,15.73222412,0.0002255,53.2188,4.716,20.8163,339.2948,1.517e-05,1.51e-05,0.0,0 STARLINK-3151,1 49408U 21104A   21343.46585899  .00001510  00000-0  15170-4 0  9995,2 49408  53.2188   4.7160 0002255  20.8163 339.2948 15.73222412  5378,6727.831,91.532,351.213,348.17900000000014,0.0
49408.0,STARLINK-3151,PAYLOAD,2021-12-09 22:00:00,15.73151997,0.000239,53.2189,2.4849,27.1282,7.7128,0.0004629,0.00064717,0.0,0 STARLINK-3151,1 49408U 21104A   21343.91667824  .00064717  00000-0  46290-3 0  9998,2 49408  53.2189   2.4849 0002390  27.1282   7.7128 15.73151997  3688,6728.031999999997,91.536,351.505,348.289,0.0
49408.0,STARLINK-3151,PAYLOAD,2021-12-10 14:00:01,15.73196015,0.0002668,53.2183,359.1884,25.9178,186.7334,0.00012972,0.00017621,0.0,0 STARLINK-3151,1 49408U 21104A   21344.58334491  .00017621  00000-0  12972-3 0  9995,2 49408  53.2183 359.1884 0002668  25.9178 186.7334 15.73196015  5556,6727.906999999997,91.533,351.56699999999995,347.977,0.0
49408.0,STARLINK-3151,PAYLOAD,2021-12-10 22:00:00,15.73205396,0.0002415,53.2185,357.5369,27.5144,274.077,2.3985e-05,2.746e-05,0.0,0 STARLINK-3151,1 49408U 21104A   21344.91667824  .00002746  00000-0  23985-4 0  9990,2 49408  53.2185 357.5369 0002415  27.5144 274.0770 15.73205396  3702,6727.88,91.533,351.37,348.12,0.0
49408.0,STARLINK-3151,PAYLOAD,2021-12-11 06:00:00,15.73189096,0.0002565,53.219,355.8888,25.4681,5.0672,-0.00025516,-0.00036267,0.0,0 STARLINK-3151,1 49408U 21104A   21345.25001157 -.00036267  00000-0 -25516-3 0  9997,2 49408  53.2190 355.8888 0002565  25.4681   5.0672 15.73189096  5651,6727.926,91.534,351.517,348.066,0.0
49408.0,STARLINK-3151,PAYLOAD,2021-12-11 14:00:01,15.73329207,0.0002631,53.218,354.2371,25.0188,94.3849,-0.0029981,-0.00404171,0.0,0 STARLINK-3151,1 49408U 21104A   21345.58334491 -.00404171  00000-0 -29981-2 0  9995,2 49408  53.2180 354.2371 0002631  25.0188  94.3849 15.73329207  3703,6727.526999999999,91.526,351.162,347.622,0.0
49408.0,STARLINK-3151,PAYLOAD,2021-12-11 22:00:00,15.73310251,0.0002375,53.2173,352.5809,24.2292,183.9386,-0.0047979999999999,-0.00629088,0.0,0 STARLINK-3151,1 49408U 21104A   21345.91667824 -.00629088  00000-0 -47980-2 0  9996,2 49408  53.2173 352.5809 0002375  24.2292 183.9386 15.73310251  5762,6727.581,91.527,351.0440000000001,347.848,0.0
49408.0,STARLINK-3151,PAYLOAD,2021-12-12 14:00:01,15.72399844,0.000218,53.2171,349.282,18.3834,6.8195,-0.0052648,-0.00661212,0.0,0 STARLINK-3151,1 49408U 21104A   21346.58334491 -.00661212  00000-0 -52648-2 0  9993,2 49408  53.2171 349.2820 0002180  18.3834   6.8195 15.72399844  5862,6730.177,91.58,353.51,350.575,0.0
49408.0,STARLINK-3151,PAYLOAD,2021-12-12 22:00:01,15.71932777,0.0002353,53.2172,347.6311,17.3971,95.5555,-0.005376,-0.00661834,0.0,0 STARLINK-3151,1 49408U 21104A   21346.91668981 -.00661834  00000-0 -53760-2 0  9990,2 49408  53.2172 347.6311 0002353  17.3971  95.5555 15.71932777  3683,6731.511,91.607,354.959,351.792,0.0
49408.0,STARLINK-3151,PAYLOAD,2021-12-13 14:00:01,15.70993133,0.0001841,53.2173,344.3385,318.0048,328.5663,-0.005479,-0.00649026,0.0,0 STARLINK-3151,1 49408U 21104A   21347.58334491 -.00649026  00000-0 -54790-2 0  9993,2 49408  53.2173 344.3385 0001841 318.0048 328.5663 15.70993133  3698,6734.194,91.662,357.2990000000001,354.82,0.0
49408.0,STARLINK-3151,PAYLOAD,2021-12-13 22:00:00,15.70531907,0.0003136,53.2174,342.6915,311.0831,61.4877,-0.0056751999999999,-0.00658855,0.0,0 STARLINK-3151,1 49408U 21104A   21347.91667824 -.00658855  00000-0 -56752-2 0  9999,2 49408  53.2174 342.6915 0003136 311.0831  61.4877 15.70531907  6073,6735.513000000001,91.689,359.49,355.266,0.0
49408.0,STARLINK-3151,PAYLOAD,2021-12-14 14:00:01,15.69604791,0.0004114,53.2171,339.4057,272.469,270.4182,-0.0060113,-0.00670611,0.0,0 STARLINK-3151,1 49408U 21104A   21348.58334491 -.00670611  00000-0 -60113-2 0  9994,2 49408  53.2171 339.4057 0004114 272.4690 270.4182 15.69604791  3721,6738.165,91.743,362.802,357.2580000000001,0.0
49408.0,STARLINK-3151,PAYLOAD,2021-12-14 22:00:00,15.69124411,0.0002767,53.2172,337.7619,290.4228,336.7886,-0.0058853,-0.00645158,0.0,0 STARLINK-3151,1 49408U 21104A   21348.91667824 -.00645158  00000-0 -58853-2 0  9996,2 49408  53.2172 337.7619 0002767 290.4228 336.7886 15.69124411  6238,6739.54,91.771,363.27,359.54,0.0
49408.0,STARLINK-3151,PAYLOAD,2021-12-15 12:00:00,15.68308819,0.00031,53.2173,334.8934,259.567,63.8507,-0.0060793,-0.00644432,0.0,0 STARLINK-3151,1 49408U 21104A   21349.50001157 -.00644432  00000-0 -60793-2 0  9993,2 49408  53.2173 334.8934 0003100 259.5670  63.8507 15.68308819  6329,6741.876,91.819,365.831,361.651,0.0
49408.0,STARLINK-3151,PAYLOAD,2021-12-15 14:22:36,15.68186001,0.0002409,53.2173,334.4057,258.1467,264.6016,-0.0064236999999999,-0.0067483,0.0,0 STARLINK-3151,1 49408U 21104A   21349.59902778 -.00674830  00000-0 -64237-2 0  9993,2 49408  53.2173 334.4057 0002409 258.1467 264.6016 15.68186001  3691,6742.228,91.826,365.718,362.469,0.0
49408.0,STARLINK-3151,PAYLOAD,2021-12-15 22:00:01,15.67739711,4.66e-05,53.2175,332.8428,339.7201,177.1437,-0.0065031,-0.00670683,0.0,0 STARLINK-3151,1 49408U 21104A   21349.91668981 -.00670683  00000-0 -65031-2 0  9999,2 49408  53.2175 332.8428 0000466 339.7201 177.1437 15.67739711  3685,6743.5080000000025,91.852,365.687,365.059,0.0
49408.0,STARLINK-3151,PAYLOAD,2021-12-16 06:00:00,15.67265436,0.0001264,53.2175,331.2075,40.1394,198.7365,-0.0064919,-0.00657818,0.0,0 STARLINK-3151,1 49408U 21104A   21350.25001157 -.00657818  00000-0 -64919-2 0  9993,2 49408  53.2175 331.2075 0001264  40.1394 198.7365 15.67265436  6443,6744.868,91.88,367.586,365.881,0.0
49408.0,STARLINK-3151,PAYLOAD,2021-12-16 14:00:01,15.66801165,0.0001048,53.2172,329.5704,85.303,235.0877,-0.0066516,-0.00661051,0.0,0 STARLINK-3151,1 49408U 21104A   21350.58334491 -.00661051  00000-0 -66516-2 0  9998,2 49408  53.2172 329.5704 0001048  85.3030 235.0877 15.66801165  3698,6746.201,91.907,368.773,367.359,0.0
49408.0,STARLINK-3151,PAYLOAD,2021-12-16 22:00:01,15.66332706,0.0001095999999999,53.2174,327.9339,66.7623,334.6498,-0.0067404,-0.00657536,0.0,0 STARLINK-3151,1 49408U 21104A   21350.91668981 -.00657536  00000-0 -67404-2 0  9999,2 49408  53.2174 327.9339 0001096  66.7623 334.6498 15.66332706  3684,6747.545999999999,91.934,370.15,368.671,0.0
49408.0,STARLINK-3151,PAYLOAD,2021-12-17 05:29:00,15.66202728,0.0001222,53.2174,326.4343,93.1518,266.9639,-0.0042531,-0.00424677,0.0,0 STARLINK-3151,1 49408U 21104A   21351.22848281 -.00424677  00000-0 -42531-2 0  9999,2 49408  53.2174 326.4343 0001222  93.1518 266.9639 15.66202728  6598,6747.919,91.942,370.609,368.959,0.0
49408.0,STARLINK-3151,PAYLOAD,2021-12-17 14:00:01,15.654022199999998,0.0001181,53.2173,324.6681,91.1457,110.4926,-0.0070534,-0.00662314,0.0,0 STARLINK-3151,1 49408U 21104A   21351.58335648 -.00662314  00000-0 -70534-2 0  9992,2 49408  53.2173 324.6681 0001181  91.1457 110.4926 15.65402220  6653,6750.219,91.989,372.881,371.287,0.0
49408.0,STARLINK-3151,PAYLOAD,2021-12-17 22:00:00,15.64933363,0.0001175,53.2175,323.0351,79.9394,200.9077,-0.0071265,-0.00657116,0.0,0 STARLINK-3151,1 49408U 21104A   21351.91667824 -.00657116  00000-0 -71265-2 0  9999,2 49408  53.2175 323.0351 0001175  79.9394 200.9077 15.64933363  3711,6751.566999999999,92.017,374.226,372.639,0.0
49408.0,STARLINK-3151,PAYLOAD,2021-12-18 13:40:10,15.64508871,0.0002853999999999,53.2176,319.8637,31.1638,328.9548,-0.0036507,-0.00344128,0.0,0 STARLINK-3151,1 49408U 21104A   21352.56956617 -.00344128  00000-0 -36507-2 0  9998,2 49408  53.2176 319.8637 0002854  31.1638 328.9548 15.64508871  5716,6752.7890000000025,92.042,376.581,372.726,0.0
49408.0,STARLINK-3151,PAYLOAD,2021-12-18 22:00:00,15.63534272,0.0001296999999999,53.2176,318.1468,62.413,92.8886,-0.0075413,-0.00657645,0.0,0 STARLINK-3151,1 49408U 21104A   21352.91667824 -.00657645  00000-0 -75413-2 0  9996,2 49408  53.2176 318.1468 0001297  62.4130  92.8886 15.63534272  6866,6755.594,92.099,378.336,376.583,0.0
49408.0,STARLINK-3151,PAYLOAD,2021-12-19 14:00:01,15.6260267,0.0001109,53.2173,314.8942,82.5799,226.2211,-0.0078727,-0.00661426,0.0,0 STARLINK-3151,1 49408U 21104A   21353.58334491 -.00661426  00000-0 -78727-2 0  9994,2 49408  53.2173 314.8942 0001109  82.5799 226.2211 15.62602670  3699,6758.279,92.154,380.894,379.395,0.0
49408.0,STARLINK-3151,PAYLOAD,2021-12-19 22:00:00,15.620209,9.55e-05,53.2171,313.2696,69.9267,314.844,-0.006033,-0.00505113,0.0,0 STARLINK-3151,1 49408U 21104A   21353.91667824 -.00505113  00000-0 -60330-2 0  9991,2 49408  53.2171 313.2696 0000955  69.9267 314.8440 15.62020900  7011,6759.956999999999,92.188,382.468,381.177,0.0
